[{"OBJECT_NAME":"STARLINK-31820","OBJECT_ID":"2024-088T","EPOCH":"2026-03-09T11:00:27.813600","MEAN_MOTION":15.30186376,"ECCENTRICITY":0.0001205,"INCLINATION":53.1609,"RA_OF_ASC_NODE":141.2066,"ARG_OF_PERICENTER":67.96,"MEAN_ANOMALY":292.1529,"EPHEMERIS_TYPE":0,"CLASSIFICATION_TYPE":"U","NORAD_CAT_ID":59725,"ELEMENT_SET_NO":999,"REV_AT_EPOCH":10364,"BSTAR":2.8884e-5,"MEAN_MOTION_DOT":4.96e-6,"MEAN_MOTION_DDOT":0},{"OBJECT_NAME":"SL-3 R\/B","OBJECT_ID":"1981-065B","EPOCH":"2026-03-09T11:00:26.560800","MEAN_MOTION":15.33291495,"ECCENTRICITY":0.0011813,"INCLINATION":97.6337,"RA_OF_ASC_NODE":110.7068,"ARG_OF_PERICENTER":12.1207,"MEAN_ANOMALY":348.0316,"EPHEMERIS_TYPE":0,"CLASSIFICATION_TYPE":"U","NORAD_CAT_ID":12586,"ELEMENT_SET_NO":999,"REV_AT_EPOCH":43492,"BSTAR":0.0003115,"MEAN_MOTION_DOT":9.961e-5,"MEAN_MOTION_DDOT":0}]
